[{"OBJECT_NAME":"STARLINK-33993","OBJECT_ID":"2025-098Z","EPOCH":"2026-03-09T19:19:59.406816","MEAN_MOTION":14.98390673,"ECCENTRICITY":0.00023778,"INCLINATION":70.0003,"RA_OF_ASC_NODE":273.9954,"ARG_OF_PERICENTER":281.9857,"MEAN_ANOMALY":78.1036,"EPHEMERIS_TYPE":0,"CLASSIFICATION_TYPE":"U","NORAD_CAT_ID":63949,"ELEMENT_SET_NO":999,"REV_AT_EPOCH":4657,"BSTAR":-0.0074293417,"MEAN_MOTION_DOT":-0.00087772,"MEAN_MOTION_DDOT":0},{"OBJECT_NAME":"FREGAT DEB [TANK]","OBJECT_ID":"2017-086C","EPOCH":"2026-03-09T20:00:47.069568","MEAN_MOTION":12.91661874,"ECCENTRICITY":0.13388315,"INCLINATION":50.3566,"RA_OF_ASC_NODE":269.5677,"ARG_OF_PERICENTER":319.0148,"MEAN_ANOMALY":31.7228,"EPHEMERIS_TYPE":0,"CLASSIFICATION_TYPE":"U","NORAD_CAT_ID":43089,"ELEMENT_SET_NO":999,"REV_AT_EPOCH":34771,"BSTAR":0.00099674445,"MEAN_MOTION_DOT":0.00053157,"MEAN_MOTION_DDOT":5.384887e-6}]
